Station ID,Name,Latitude,Longitude,Road Number,Municipality,Province
C01503,kt51_Inkoo,60.05374,23.99616,,,
C01504,vt2_Karkkila_Korpi,60.536727,24.235601,,,
C01505,kt52_Raasepori_Tenhola,60.061798,23.303264,,,
C01506,vt25_Myllylampi,60.311546,24.241007,,,
C01507,vt25_Hanko,59.856454,23.021452,,,
C01508,vt4_Mäntsälä,60.671599,25.350988,,,
C01509,vt3_Hyvinkää_Noppo,60.566139,24.818794,,,
C01510,st110_Lohja_Oinola,60.385844,23.904879,,,
C01513,st101_Helsinki_Pakila,60.244449,24.948435,,,
C01521,st101_Turvesuontie,60.199721,24.809299,,,
C01522,st101_Kalevalantie,60.186893,24.808657,,,
C01523,vt4_Helsinki_Tattarisuo,60.247251,25.06072,,,
C01524,kt51_Kirkkonummi_Jorvas,60.133523,24.511089,,,
C01526,vt1_Espoo_Kehä_III,60.220069,24.645423,,,
C01527,vt1_Espoo_Hista,60.244194,24.567094,,,
C01528,vt1_Kirkkonummi_Veikkola,60.273886,24.45371,,,
C01529,vt1_Vihti_Palojärvi,60.293397,24.366624,,,
C01530,vt1_Lohja_Hevoskallio,60.303066,24.271469,,,
C01531,vt1_Lohja_Muijala,60.301546,24.218153,,,
C01532,vt4_Vantaa_Leppäkorpi,60.360185,25.114463,,,
C01533,vt3_Vantaa_Klaukkala,60.354587,24.808415,,,
C01535,st101_Helsinki_Pirkkola,60.235281,24.899751,,,
C01536,st167_Myrskylä_Hallila,60.621867,25.862399,,,
C01538,vt6_Lapinjärvi,60.618436,26.199342,,,
C01539,VUO_SAT,60.224998,25.170316,,,
C01555,VUO_GUM,60.245129,25.14726,,,
C01556,VUO_NIIN,60.220715,25.160012,,,
C01568,kt50_Bemböle,60.223766,24.669609,,,
C01569,kt50_Järvenperä,60.241334,24.697792,,,
C01570,kt50_Espoo_Koskelonsilta,60.262249,24.732951,,,
C01571,kt50_Juvanmalmi,60.26782,24.761659,,,
C01572,kt50_Vihdintie,60.273993,24.804803,,,
C01573,kt50_Martinlaakso,60.287664,24.834897,,,
C01574,kt50_Hämeenlinnanväylä,60.292353,24.857657,,,
C01575,kt50_Tuupakka,60.297772,24.883598,,,
C01576,kt50_Kalliosola,60.296991,24.915988,,,
C01577,kt50_Lentoasema,60.294819,24.959519,,,
C01578,kt50_Tuusulanväylä,60.287801,24.9804,,,
C01579,kt50_Suutarila,60.285747,25.013957,,,
C01580,kt50_Vantaa_Tikkurila,60.282826,25.028912,,,
C01581,kt50_Lahdenväylä,60.27422,25.087171,,,
C01582,kt50_Porvoonväylä,60.257352,25.12546,,,
C01584,kt50_Kirkkonummi_Inkilä,60.137986,24.534527,,,
C01587,st100_Kivihaka_Masto,60.207997,24.898843,,,
C01590,st100_Kivihaka_Ilmala,60.208315,24.907594,,,
C01600,st101_Säterinsolmu,60.213076,24.816278,,,
C01601,st101_Perkkaa,60.215225,24.816388,,,
C01602,st101_Vermo,60.218286,24.816275,,,
C01603,st101_Turuntie,60.219932,24.816436,,,
C01615,st101_Puomi_Länsi,60.220779,24.81656,,,
C01616,st101_Vallikallio,60.226852,24.825366,,,
C01617,st101_Ramppi_Itä,60.227071,24.825081,,,
C01618,st101_Lintuvaara,60.228303,24.827347,,,
C01619,st101_Mäkkylä,60.228607,24.827796,,,
C01620,st101_Reimarla,60.229502,24.836388,,,
C01621,st101_Konala,60.230325,24.844443,,,
C01622,vt25_Raasepori,59.982241,23.435554,,,
C01623,vt1_Espoo_Lommila2,60.215551,24.661147,,,
C01624,vt25_Vihti_Haimoo,60.447062,24.51344,,,
C01625,vt2_Lohja_Salkola,60.632842,23.914248,,,
C01626,vt24_Padasjoki_Arrakoski,61.390201,25.188512,,,
C01627,vt25_Hanko_Santala,59.883032,23.148464,,,
C01628,vt7_Loviisa_Länsi,60.460589,26.192467,,,
C01629,vt7_Porvoo_Rita,60.418503,25.705268,,,
C01630,vt7_Loviisa_Vanhakylä,60.486235,25.892502,,,
C01631,vt7_Loviisa_Koskenkylä,60.491323,25.959015,,,
C01632,vt7_Loviisa_Itä,60.47487,26.263,,,
C01633,vt7_Loviisa_Markkinamäki_Länsi,60.490819,26.411854,,,
C01634,vt7_Loviisa_Markkinamäki,60.492027,26.419021,,,
C01635,vt7_Markkinamäki_puomi_länsi,60.492768,26.428563,,,
C01645,st170_Markkinamäki,60.495503,26.440291,,,
C01646,vt7_Markkinamäki_suuaukko_itä,60.492311,26.447881,,,
C01647,vt7_Markkinamäki_puomi_itä,60.490581,26.459539,,,
C01649,vt7_Porvoo_Ilola,60.431051,25.786794,,,
C01650,vt7_Helsinki_Landbo,60.266368,25.20937,,,
C01651,vt7_Sipoo_Sipoonlahti,60.28135,25.325135,,,
C01652,vt7_Sipoo_Kilpilahti,60.319941,25.431892,,,
C01653,vt7_Porvoo_Kulloo,60.331004,25.481299,,,
C01654,vt7_Porvoo_Skarpens,60.416538,25.672623,,,
C01655,vt3_Vantaa_Keimola,60.331489,24.821251,,,
C01656,vt3_Vantaa_Kivistö_P,60.31483,24.840088,,,
C01657,vt3_Vantaa_Kivistö_E,60.308403,24.844821,,,
C01658,st148_Sipoo_Brobölentie,60.364585,25.261519,,,
C01660,st102_Hii_E1,60.215883,24.749368,,,
C01661,st102_Hii_P1,60.207598,24.745514,,,
C01664,st102_Hii_Vt1,60.204778,24.746069,,,
C01665,st102_Hii_Mt110,60.225501,24.749792,,,
C01667,st102_Hii_Mt102,60.203123,24.746958,,,
C01668,st102_Hii_Karapellontie,60.218684,24.75035,,,
C01670,kt51_Espoo_Matinkylä,60.166077,24.752164,,,
C01671,kt51_Espoo_Finnoo,60.160642,24.704973,,,
C01672,Kt51_Espoo_Kivenlahti,60.1532,24.66466,,,
C01673,vt6_Lapinjärvi_Kimonkylä,60.699258,26.302931,,,
C01674,kt51_Helsinki_Ruoholahti,60.16591,24.910959,,,
C01675,kt51_Helsinki_Lauttasaari,60.16229,24.86532,,,
C01676,kt51_Espoo_Westend,60.168581,24.781863,,,
C01678,st101_Vihdintie,60.234252,24.860694,,,
C01679,st101_Turunväylä,60.208902,24.816466,,,
C01680,st100_Kivihaka_Länsi,60.20815,24.896018,,,
C01681,st101_Espoo_Karhusaari,60.169531,24.82346,,,
C01682,st101_Espoo_Keilalahti,60.171103,24.825646,,,
C01695,st101_Espoo_Otasolmu,60.17734,24.827451,,,
C01696,st101_Espoo_Keilaniemi_puomi_itä,60.178085,24.826915,,,
C01697,st101_Espoo_Miestentie,60.17877,24.826491,,,
C01698,st101_Espoo_Tekniikantie,60.179239,24.823864,,,
C01699,st101_Espoo_Innopoli,60.182346,24.815092,,,
C01700,st101_Espoo_Keilaranta,60.177042,24.830122,,,
C01701,st101_Espoo_Kuusisaarentie,60.17799,24.829302,,,
C01702,vt4_Järvenpää_Isokytö,60.483134,25.138578,,,
C01706,vt1_Helsinki_Munkkiniemi,60.202314,24.864164,,,
C01707,vt1_Espoo_Friisinmäki,60.208125,24.795545,,,
C01708,vt1_Espoo_Sinimäki,60.206319,24.763325,,,
C01709,vt1_Espoo_Sepänkylä,60.200866,24.729465,,,
C01710,vt1_Espoo_Tuomarila,60.205733,24.695018,,,
C01711,vt1_Espoo_Kirkkojärvi,60.211645,24.676047,,,
C01712,vt1_Espoo_Lommila,60.215818,24.66102,,,
C01713,vt4_Kerava_Kytömaa,60.426274,25.124371,,,
C01715,vt3_Klaukkala,60.385364,24.815256,,,
C01716,vt3_Nurmijärvi,60.455953,24.847195,,,
C01952,Vuosaaren_varareitti_kam1,60.232524,25.132856,,,
C01953,Vuosaaren_varareitti_kam2,60.225067,25.137198,,,
C01954,Vuosaaren_varareitti_kam3,60.222458,25.149732,,,
C01955,vt25_Mäntsälä_Keravanjärvi,60.61737,25.093768,,,
C02503,st185_Raisio_Nesteentie,60.464094,22.107171,,,
C02504,vt11_Tervahauta,61.476571,22.575119,,,
C02505,vt23_Pomarkku,61.701606,22.013872,,,
C02506,vt2_Loimaa_Leppijärvi,61.002959,23.113492,,,
C02507,vt8_Laitila_Nästi,60.798274,21.857323,,,
C02508,kt52_Somero,60.614068,23.527701,,,
C02509,vt9_Aura_Säästökallio,60.64203,22.552335,,,
C02511,st110_Salo_Kitula,60.380729,23.575594,,,
C02512,st110_Salo_Kolmperä,60.372046,23.663891,,,
C02513,st110_Salo_Muurla,60.371548,23.322043,,,
C02514,vt8_Pori_Vuoltee,61.441827,21.742524,,,
C02515,vt10_Marttila,60.588269,22.843723,,,
C02516,st196_Uusikaupunki_Lokalahti,60.692405,21.483069,,,
C02517,vt12_Rauma_Lappi,61.106789,21.911443,,,
C02518,kt41_Virttaa,60.931291,22.683162,,,
C02519,vt2_Harjavalta_Nummi,61.305578,22.130739,,,
C02520,kt40_Turku_Kärsämäki,60.497459,22.285453,,,
C02521,kt40_Raisio,60.488183,22.174671,,,
C02522,kt40_Kaarina_Ravattula,60.471645,22.361207,,,
C02523,vt2_Pori_Honkaluoto,61.448268,21.833519,,,
C02524,vt8_Pori_Hyvelä,61.525521,21.803104,,,
C02525,vt8_Rauma_Luostarinkylä,61.150155,21.569286,,,
C02526,st180_Parainen_Prostvik,60.219237,22.092414,,,
C02527,st110_Paimio_Kurjenmäki,60.404055,22.82271,,,
C02528,st186_Salo_Orijärvi,60.238448,23.577745,,,
C02529,vt1_Turku_Jaani,60.437544,22.318686,,,
C02530,vt1_Turku_Huhkola,60.428912,22.326171,,,
C02531,vt1_Kaarina_Kurkela,60.422324,22.348875,,,
C02532,vt1_Kaarina_Väntsi,60.423748,22.379397,,,
C02533,vt1_Kaarina_Raadelma,60.429799,22.445037,,,
C02534,vt1_Kaarina_Kirismäki,60.443243,22.490693,,,
C02535,vt1_Paimio_Villisi,60.442428,22.594127,,,
C02536,vt1_Paimio_Valkoja,60.424733,22.671954,,,
C02537,vt1_Paimio_Vista,60.42785,22.723271,,,
C02538,vt1_Salo_Hajala,60.43307,22.927452,,,
C02539,vt1_Salo_Halikko,60.426922,23.046429,,,
C02540,vt1_Salo_Pappila,60.41783,23.165136,,,
C02541,vt1_Salo_Isokylä,60.418295,23.134922,,,
C02542,vt1_Isokylän_tunneli_puomi_i,60.418497,23.157422,,,
C02543,vt1_Isokylän_tunneli_puomi_l,60.418845,23.146128,,,
C02545,vt9_Loimaa_Korpi,60.920967,23.208104,,,
C02546,st204_Pöytyä_Yläne,60.876875,22.39439,,,
C02550,st180_Kaarina_Kirjalansalmi,60.367144,22.358572,,,
C02551,vt8_Laitila_Palttila,60.890499,21.660864,,,
C02562,vt1_Salo_Haukkala,60.407366,23.211237,,,
C02563,st189_Naantali_Luonnonmaa,60.459147,21.983758,,,
C02564,vt1_Kaarina_Makarla,60.445487,22.563043,,,
C02565,vt1_Paimio_Pitkäporras,60.426842,22.820274,,,
C02569,st183_Kemiönsaari_Engelsby,60.163807,22.740708,,,
C02570,st180_Parainen_Nauvo,60.169432,21.78628,,,
C02571,st183_Kemiönsaari_Taalintehdas_K,60.044041,22.485968,,,
C02572,kt52_Salo_Perniö,60.172839,23.147451,,,
C02573,vt8_Pori_Ahlainen_K,61.651109,21.758195,,,
C02574,vt8_Merikarvia_Kuvaskangas,61.943607,21.624488,,,
C02586,vt2_Kokemäki_Seppälänahde,61.20855,22.447849,,,
C02587,vt2_Huittinen_Korvenmaa,61.106727,22.849562,,,
C02588,vt23_Kankaanpää_Hapua,61.800246,22.290034,,,
C02590,Åland_Eckerö,60.211657,19.618722,,,
C03502,st170_Pyhtää_Ahvenkoski,60.491874,26.455241,,,
C03504,vt6_Kouvola_Utti_YPS,60.886259,26.819304,,,
C03505,vt13_Ostolahti,61.453342,27.264606,,,
C03506,vt6_Kouvola_Keltti,60.872855,26.602185,,,
C03507,vt23_Heinävesi_Karvio,62.515174,28.644309,,,
C03509,vt5_Juva_Hatsola,61.877345,27.767777,,,
C03518,vt14_Savonlinna_Kyrönsalmi_silta,61.869682,28.905753,,,
C03519,vt15_Kouvola_Keltakangas,60.748653,26.842825,,,
C03522,vt6_Parikkala_Särkisalmi,61.603414,29.481726,,,
C03523,vt5_Mäntyharju_Vihantasalmi,61.441703,26.679036,,,
C03524,vt15_Kotka_Kotkansaari,60.463908,26.921338,,,
C03525,vt6_Imatra_Rönkkä,61.229996,28.856199,,,
C03527,kt72_Haukivuori,62.011742,27.197605,,,
C03528,kt46_Kouvola_Jaala,61.016126,26.586723,,,
C03529,vt6_Lappeenranta_Muukko,61.095702,28.374158,,,
C03530,vt7_Hamina_Lelu,60.570267,27.305027,,,
C03531,vt15_Kouvola_Käyrälampi,60.885055,26.765977,,,
C03532,vt5_Pertunmaa_Kuortti,61.399125,26.386503,,,
C03533,kt46_Kouvola_Uimila,61.159432,26.305941,,,
C03534,kt62_Mikkeli_Anttola,61.588222,27.622619,,,
C03548,vt6_Kouvola_Elimäki,60.736185,26.440398,,,
C03552,st170_Hamina_Tallinmäki,60.556257,27.245648,,,
C03555,st170_Virolahti_Vaahterikonkangas,60.57199,27.638443,,,
C03557,st170_Urheilukentän_risteys,60.586974,27.726683,,,
C03558,vt6_Lappeenranta_Saimaan_kanava,61.071041,28.307574,,,
C03560,kt62_Virmutjoki,61.344408,28.770943,,,
C03561,vt14_Savonlinna_Punkaharju,61.766037,29.370411,,,
C03562,vt5_Joroinen_Tahkoranta,62.224729,27.887845,,,
C03563,vt23_Pieksämäki_Siikamäki,62.290447,27.405954,,,
C03564,vt15_Laivolahti,61.18898,27.16245,,,
C03565,vt13_Lokkaan_suora,61.022307,28.395891,,,
C03566,vt6_Lappeenranta_Reijola,61.041502,28.188913,,,
C03568,vt6_Lappeenranta_Muukon_suora,61.101621,28.405359,,,
C03570,vt13_Karhusjärvi,61.04087,28.359564,,,
C03571,vt6_Lappeenranta_Selkäharju,61.026327,28.041128,,,
C03572,vt6_Lappeenranta_Lavola,61.034965,28.115215,,,
C03573,vt6_Lappeenranta_Viipurintie,61.044721,28.211606,,,
C03574,vt6_Lappeenranta_Nuijamaantie,61.066323,28.293074,,,
C03575,vt13_Savitaipale,61.191592,27.667124,,,
C03576,vt26_Hamina_Pyhältö,60.75853,27.347935,,,
C03577,vt6_Lappeenranta_Joutseno,61.116802,28.482966,,,
C03578,vt6_Lappeenranta_Vesivalo,61.172872,28.700453,,,
C03579,vt6_Rautjärvi_Simpele,61.419383,29.340937,,,
C03580,st387_Lappeenranta_Ylämaa,60.789628,28.010568,,,
C03581,vt26_Hamina_Myllykylä,60.630542,27.216275,,,
C03584,vt7_Kotka_Jumalniemi,60.509958,26.918987,,,
C03585,vt7_Pyhtää_Ahvenkoski,60.485486,26.490466,,,
C03586,vt7_Pyhtää,60.487631,26.563585,,,
C03587,vt12_Mankala_K,60.913263,26.179105,,,
C03588,vt15_Kotka_Juurikorpi,60.624956,26.921476,,,
C03589,vt15_Tuohikotti_K,61.074285,27.059063,,,
C03590,st170_Pyhtää_Ahvenkoski2,60.489682,26.491219,,,
C03591,vt7_Pyhtää_Siltakylä,60.503413,26.742226,,,
C03592,vt7_Pyhtää_Heinlahti_silta,60.496713,26.823697,,,
C03593,vt7_Kotka_Sutelan_silta,60.498751,26.87074,,,
C03594,vt7_Kotka_Kyminlinna,60.504557,26.898172,,,
C03595,vt7_Kotka_Suurniitty,60.521887,26.948394,,,
C03596,vt7_Kotka_Otsola,60.531597,26.960569,,,
C03597,vt7_Kotka_Keltakallio,60.540068,26.97565,,,
C03598,vt7_Hamina_Rantahaka,60.557757,27.010504,,,
C03599,vt7_Hamina_Summanjoki,60.569807,27.097308,,,
C03600,vt7_Hamina_Lankamalmi,60.574004,27.133939,,,
C03601,vt7_Husula_Länsi,60.584788,27.150738,,,
C03602,vt7_Hamina_Ruissalo,60.58667,27.153503,,,
C03603,vt7_Husula_suuaukko_länsi,60.593727,27.168726,,,
C03604,vt7_Husula_puomi_länsi,60.592813,27.167224,,,
C03613,vt7_Husula_puomi_itä,60.59744,27.178477,,,
C03614,vt7_Hamina_Töytäri,60.599463,27.189335,,,
C03615,vt7_Husula_Itä,60.599547,27.193553,,,
C03616,vt7_Kolsila_puomi_länsi,60.597841,27.211035,,,
C03621,vt7_Kolsila_puomi_itä,60.597658,27.219177,,,
C03622,vt7_Hamina_Helsmanni,60.598194,27.236655,,,
C03623,vt7_Hamina_Karjusuo,60.589451,27.273208,,,
C03647,vt7_Virolahti_Saarasjärvi,60.591769,27.605845,,,
C03648,vt7_Virolahti_Kattilainen,60.567173,27.380536,,,
C03650,vt7_Virolahti_Lappeenrannantie,60.61066,27.815499,,,
C03651,vt7_Vaalimaan_tunneli_puomi_itä,60.613077,27.798827,,,
C03653,vt7_Vaalimaan_tunneli_suuaukko_itä,60.613149,27.795851,,,
C03656,vt7_Vaalimaan_tunneli_suuaukko_länsi,60.612111,27.787659,,,
C03658,vt7_Vaalimaan_tunneli_puomi_länsi,60.61087,27.781839,,,
C03659,vt7_Vaalimaan_tunneli_länsi,60.605546,27.75678,,,
C03660,vt7_Virolahti_Virojoki,60.604929,27.703673,,,
C03661,vt6_Luumäki_Taavetti,60.928596,27.583765,,,
C03663,vt6_Luumäki_kko,60.934604,27.664768,,,
C03665,vt7_Pyhtää_Roonas,60.486063,26.498354,,,
C03672,vt7_Hamina_Summa,60.569293,27.088203,,,
C03674,vt7_Hamina_Kolsila_itä,60.595403,27.255293,,,
C03675,vt7_Hamina_Karjusuo_B,60.589451,27.273208,,,
C03676,vt5_Joroinen_Puunkolo,62.057329,27.806766,,,
C03682,vt7_Markkinamäki_Itä,60.485748,26.497995,,,
C03690,vt6_Luumäki_Pajari,60.906625,27.226161,,,
C04501,vt23_Virrat,62.251795,23.9833,,,
C04502,vt3_Hämeenlinna_Hattelmala,60.971439,24.473003,,,
C04503,vt2_Forssa,60.822636,23.589387,,,
C04504,vt9_Kangasala_Suinula,61.54484,24.052095,,,
C04505,vt12_Tuulos,61.102028,24.870892,,,
C04506,vt3_Hämeenkyrö_Sasi,61.599482,23.3837,,,
C04507,vt3_Tampere_Lakalaiva,61.462733,23.769505,,,
C04508,vt11_Murhasaari,61.503506,23.339773,,,
C04509,vt3_Nokia_Pitkäniemi,61.48815,23.584856,,,
C04510,kt65_Ylöjärvi_Kuru,61.877441,23.725555,,,
C04513,vt9_Orivesi_Oritupa,61.6684,24.277987,,,
C04514,vt9_Urjala_Nuutajärvi,61.026398,23.496312,,,
C04516,vt3_Parkano_Kuivasjärvi,62.175308,22.981132,,,
C04517,kt54_Loppi,60.765736,24.251452,,,
C04518,vt3_Riihimäki_Lemmenmäki,60.749682,24.729539,,,
C04519,vt12_Nokia_Sarkola,61.400326,23.25999,,,
C04520,st413_Sysmä_Koskue,61.507816,25.69925,,,
C04522,vt24_Asikkala_Iso-Äiniö,61.226205,25.349865,,,
C04524,vt12_Paasikiventie,61.508424,23.697603,,,
C04526,vt4_Heinola_Vahravuori,61.193142,26.002133,,,
C04527,vt3_Valkeakoski_Konho,61.225394,23.838616,,,
C04528,vt3_Pirkkala_Huovi,61.452837,23.636186,,,
C04530,vt3_Pirkkala_Pirkkahalli,61.463503,23.723528,,,
C04531,vt12_Pälkäne,61.272988,24.351578,,,
C04533,vt3_Pirkkala_Rajaniemi,61.470968,23.595982,,,
C04534,vt12_Tampere_Alasjärvi,61.498457,23.88529,,,
C04535,vt9_Jämsä_Länkipohja,61.740547,24.800909,,,
C04536,vt4_Lahti_Ahtiala,60.997503,25.784664,,,
C04537,vt3_Ikaalinen_Luhalahti,61.900972,22.979492,,,
C04538,vt4_Hartola_Pohjola,61.519749,25.999575,,,
C04539,vt12_Arola,60.926374,26.092728,,,
C04540,vt10_Tammela_Heinivaho,60.827277,24.001411,,,
C04541,kt54_Kärkölä_Järvelä,60.881068,25.267874,,,
C04542,kt58_Juupajoki,61.785072,24.392114,,,
C04543,kt66_Ruovesi_Ruhala,61.945398,24.115442,,,
C04544,vt12_Tampere_Kissanmaa,61.50411,23.821133,,,
C04546,vt12_Hyhky,61.508008,23.687886,,,
C04547,vt9_Tampere_Linnainmaa,61.488435,23.874866,,,
C04548,kt65_Tampere_Lielahti,61.514618,23.663405,,,
C04549,kt66_Ruovesi_Visuvesi,62.118437,23.925388,,,
C04555,yt3495_Tampere_Rautaharkko,61.477335,23.774492,,,
C04556,vt3_Hämeenlinna_Etelä,60.990007,24.459211,,,
C04558,vt3_Hämeenlinna_Puomi_E,60.989917,24.459218,,,
C04563,vt3_Hämeenlinna_Pohjoinen,60.996684,24.453184,,,
C04564,vt3_Hämeenlinna_Puomi_P,60.998981,24.452094,,,
C04565,vt3_Hämeenlinna_Ojoinen,61.002242,24.44878,,,
C04566,vt3_Janakkala_Turenki,60.912418,24.543075,,,
C04567,vt4_Hartola_Kettuvuori,61.66544,26.03436,,,
C04568,vt12_Tampere_Rantatie,61.505814,23.716046,,,
C04569,vt12_Tampere_Santalahdenpuisto,61.504465,23.720833,,,
C04570,vt12_Tampere_Tikkutehdas,61.50304,23.725477,,,
C04571,vt12_Tre_Rantatunneli_ramppi_l,61.502058,23.727216,,,
C04572,vt12_Tre_Rantatunneli_puomi_l,61.501376,23.730278,,,
C04607,vt12_Tre_Rantatunneli_Armonkallio,61.507146,23.772567,,,
C04608,vt12_Tre_Rantatunneli_puomi_i,61.507667,23.772927,,,
C04609,vt12_Tampere_Rauhaniemi,61.50753,23.776646,,,
C04610,vt12_Tampere_Marjatansilta,61.507312,23.77996,,,
C04611,vt12_Tampere_Kalevan_puistotie,61.506484,23.786345,,,
C04613,vt9_Tampere_Olkahinen,61.532529,23.951396,,,
C04614,vt3_Lempäälä_Ideapark,61.365893,23.791187,,,
C04615,vt3_Lempäälä_Sääksjärvi,61.418909,23.760294,,,
C04616,vt12_Tampere_Atala,61.497141,23.917511,,,
C04617,vt12_Hollola_Soramäki,60.980467,25.485504,,,
C04618,vt12_Lahti_Patomäki_Okeroinen_Puomi,60.953125,25.589821,,,
C04619,vt12_Lahti_Okeroinen,60.955209,25.595915,,,
C04620,vt12_Lahti_Patomäki_Okeroinen_Puomi_Ramppi,60.952949,25.597012,,,
C04621,st140_Lahti_Jokimaa,60.945882,25.604762,,,
C04622,st167_Lahti_Uudenmaankatu,60.93605,25.632893,,,
C04623,vt12_Lahti_Patomäki_Ramppi_Länsi,60.954816,25.616909,,,
C04624,vt12_Lahti_Patomäki_Puomi_Länsi,60.95435,25.629302,,,
C04625,vt12_Lahti_Patomäki_Länsi,60.954484,25.629296,,,
C04629,vt12_Lahti_Liipola_Ajokadun_silta,60.957175,25.658469,,,
C04630,vt12_Lahti_Patomäki_Ramppi_Itä,60.957273,25.65298,,,
C04631,vt12_Lahti_Liipola_Ramppi_Länsi,60.955936,25.651208,,,
C04632,vt12_Lahti_Patomäki_Puomi_Itä,60.955496,25.642289,,,
C04637,vt12_Lahti_Liipola_Puomi_Länsi,60.955878,25.66434,,,
C04638,vt12_Lahti_Liipola_Länsi,60.956085,25.664461,,,
C04646,vt12_Lahti_Kujala,60.956368,25.690505,,,
C04647,vt12_Lahti_Liipola_Puomi_Ramppi_Itä,60.957316,25.690078,,,
C04648,vt12_Lahti_Liipola_Puomi_Itä,60.95694,25.684683,,,
C04657,vt4_Lahti_Renkomäki,60.931574,25.635945,,,
C04658,vt4_Lahti_Kujala,60.959422,25.69989,,,
C04659,vt12_Kangasala_Kiveliö,61.491056,23.948109,,,
C04660,vt12_Lahti_Laune,60.956574,25.649538,,,
C04661,vt12_Hollola_Okeroinen,60.960679,25.534522,,,
C06501,vt5_Mikkeli,61.680316,27.272063,,,
C06502,vt14_Hiismäki,61.966783,28.304476,,,
C06503,vt23_Heinävesi_Lamminpää,62.524064,28.46415,,,
C06504,st438_Sulkava_Lohilahti,61.610707,28.695867,,,
C06505,vt23_Pieksämäki_Naarajärvi,62.279094,27.047652,,,
C06506,st435_Sulkava_Pieksuu,61.799361,28.318466,,,
C06507,vt13_Kangasniemi_Häppälä_K,62.159236,26.318696,,,
C06508,vt14_Savonlinna_Laitaatsalmi,61.877877,28.846705,,,
C06509,vt14_Savonlinna_Hevonpäänniemi,61.879312,28.854191,,,
C06510,vt14_Savonlinnan_ratapiha,61.876607,28.874285,,,
C06511,vt14_Savonlinna_Ruislahti,61.868272,28.899295,,,
C06512,vt14_Savonlinna_Miekkoniemi,61.868182,28.923174,,,
C06513,vt13_Kangasniemi,62.002904,26.657432,,,
C06514,vt14_Savonlinna_Nojanmaa,61.876495,28.953939,,,
C06515,vt23_Suurmäki_K,62.533583,28.919969,,,
C06516,st476_Heinävesi,62.422574,28.632117,,,
C06517,vt9_Pieksämäki_Mehtiö,62.463608,26.836214,,,
C06519,vt14_Savonlinna_Laitaatsalmi_silta2,61.878477,28.838162,,,
C06521,st438_Sulkava_Vekaransalmi,61.738281,28.500378,,,
C06522,kt62_Puumala_Huuhkaala,61.482832,28.262171,,,
C06523,vt5_Juva_Nuutilanmäki,61.795714,27.598307,,,
C06524,mt474_Savonlinna_Savonranta,62.170941,29.210756,,,
C07501,st524_Lieksa_Nurmijärvi,63.52359,29.995521,,,
C07502,st522_Lieksa_Hatunkylä,63.283638,30.53234,,,
C07503,st500_Joensuu_Hoilola_K,62.345539,30.850259,,,
C07504,kt71_Kitee_Väärämäki,62.053425,29.607324,,,
C07505,vt6_Kitee_Kousa,61.974388,29.873687,,,
C07506,kt73_Lieksa_Kyyrönlampi,63.046943,30.126072,,,
C07507,vt6_Kontiolahti_Romppala,62.957283,29.804021,,,
C08505,kt73_Lieksa_Vieki,63.476113,29.623547,,,
C08506,vt5_Leppävirta_Oravikoski,62.589621,27.604964,,,
C08508,vt5_Sonkajärvi_Sukeva,63.869617,27.440439,,,
C08509,vt9_Suonenjoki_Purola,62.634732,27.120953,,,
C08510,vt5_Kuopio_Vehmasmäki,62.71901,27.577415,,,
C08511,vt6_Nurmes_Lamminkangas,63.564128,29.010369,,,
C08517,kt73_Uimaharju,62.907214,30.226003,,,
C08518,vt6_Kitee_Puhos,62.083314,29.949585,,,
C08519,vt9_Paakkila,62.78615,28.664434,,,
C08520,vt27_Iisalmi_Runni,63.610419,26.916136,,,
C08521,vt5_Varkaus_Huruslahti,62.354763,27.815048,,,
C08522,vt5_Lapinlahti_Salonsaari,63.38146,27.390516,,,
C08523,vt9_Tohmajärvi,62.221872,30.361484,,,
C08524,vt5_Kuopio_Päiväranta,62.929123,27.674805,,,
C08525,vt6_Juuka_Ahmovaara,63.094644,29.610078,,,
C08526,kt77_Keitele,63.186155,26.33446,,,
C08527,kt75_Rautavaara_Hankamäki,63.340184,28.454163,,,
C08528,vt9_Kuopio_Vartiala,62.931678,28.045121,,,
C08529,vt23_Liperi_Kaatamo,62.564705,29.145983,,,
C08530,vt9_Ulla,62.700715,28.96071,,,
C08531,vt9_Noljakka,62.618315,29.728748,,,
C08532,vt23_Leppävirta_Soisalo,62.407354,28.165408,,,
C08533,vt5_Siilinjärvi_Räimä,63.040002,27.660939,,,
C08534,st573_Kaavi,62.978784,28.449154,,,
C08535,st536_Vehmersalmi,62.767344,27.998791,,,
C08536,vt5_Iisalmi_Pöytäkangas,63.544022,27.249218,,,
C08537,vt5_Lapinlahti_Alapitkä,63.21277,27.527911,,,
C08538,vt5_Kuopio_Siikalahti,62.884793,27.635852,,,
C08540,kt74_Heinävaara,62.559261,30.173316,,,
C08541,vt6_Kitee_Kesälahti,61.900117,29.808879,,,
C08543,vt6_Tohmajärvi_Onkamo,62.310956,30.123326,,,
C08544,st551_Kuopio_Pihkainmäki,62.84291,27.341408,,,
C08545,kt87_Rautavaara,63.495466,28.301256,,,
C08546,vt6_Kontiolahti_Uuro,62.71733,29.85726,,,
C08547,vt6_Joensuu_Reijola,62.530883,29.862258,,,
C08548,st504_Polvijärvi,62.848389,29.337172,,,
C08549,vt6_Joensuu_Honkavaara,62.435334,30.036428,,,
C08550,kt88_Vieremä_Isomäki,63.910761,26.730313,,,
C08551,kt87_Sonkajärvi_Koirakoski,63.606652,27.800482,,,
C08552,st482_Rääkkylä_Rasivaara,62.269033,29.747692,,,
C08553,vt6_Kontiolahti_Varparanta,62.819296,29.838995,,,
C08556,vt5_Kuopio_Päiväranta_silta,62.934183,27.667692,,,
C08557,vt5_Kuopio_Tikkalansaari,62.946849,27.671233,,,
C08558,vt5_Kuopio_Sorsasalo,62.958516,27.690072,,,
C08559,vt5_Siilinjärvi_Vuorela,62.973141,27.705881,,,
C08560,vt5_Siilijärvi_Rissala,62.989374,27.708404,,,
C08561,vt9_Siilinjärvi_Vuorela,62.972639,27.707487,,,
C08572,vt5_Kuopio_Pihlajaharju,62.920353,27.67675,,,
C08573,kt75_Siilinjärvi_1,63.07713,27.661682,,,
C08574,kt75_Siilinjärvi_2,63.078469,27.669037,,,
C08575,kt74_Ilomantsi,62.674067,30.949194,,,
C08576,vt6_Joensuu_Repokallio,62.590942,29.813366,,,
C08577,st551_Vesanto_ Löttökorpi_K,62.927206,26.389087,,,
C08578,vt5_Iisalmi_Ryhälänmäki,63.666126,27.285323,,,
C08579,vt27_Iisalmi_Lammasaho,63.614118,26.8432,,,
C08580,st563_Iisalmi_Haukimäki_K,63.484943,26.99737,,,
C08581,st577_Lapinlahti_Varpaisjärvi,63.352989,27.7673,,,
C08582,yt5862_Sonkajärvi_Jyrkkä_K,63.777211,27.80882,,,
C08583,st573_Kaavi_Maarianvaara,62.84956,28.880599,,,
C08584,kt73_Lieksa,63.293606,30.071225,,,
C08585,vt27_Kiuruvesi_Aittojärvi,63.672449,26.396706,,,
C08586,st506_Juuka_Ukonvaara,63.035926,28.945929,,,
C08587,vt9_Kuopio_Jännevirta_Silta,62.971111,27.830014,,,
C08588,kt75_Nilsiä_Suholanmäki,63.157658,28.056424,,,
C08589,st522_Ilomantsi_Hattuvaara,62.929197,31.277053,,,
C08590,kt77_Pielavesi_Löytynjärvi,63.232122,26.949473,,,
C08591,Mt476_Heinävesi_Latvalampi,62.389988,29.070768,,,
C08592,St500_Ilomantsi_Mutalahti,62.451482,31.114789,,,
C09501,vt4_Äänekoski_Petomäki,62.678129,25.756598,,,
C09502,vt24_Kuhmoinen_Patavesi,61.607791,25.252931,,,
C09503,vt9_Muurame,62.110132,25.648779,,,
C09504,vt9_Laukaa_Metsolahti,62.252761,26.102011,,,
C09505,vt9_Hankasalmi_Nälkämäki,62.356326,26.567945,,,
C09506,vt4_Äänekoski_Hirvaskangas,62.515177,25.687698,,,
C09507,vt4_Toivakka_Vestonmäki,62.051448,26.051668,,,
C09509,vt4_Joutsa_Tammilahti,61.788347,26.095395,,,
C09510,vt4_Jyväskylä_Vaajakoski,62.245748,25.871692,,,
C09511,vt9_Jyväskylä_Pumperi,62.211603,25.720218,,,
C09512,vt9_Jämsä_Himos,61.889196,25.287638,,,
C09513,vt4_Viitasaari_Taimoniemi,63.137287,25.768156,,,
C09514,vt13_Karstula_Humppi,62.905848,24.896473,,,
C09515,vt4_Jyväskylä_Puuppola,62.340207,25.703895,,,
C09516,vt18_Petäjävesi_Kintaus,62.270451,25.338724,,,
C09518,vt9_Jämsä_Partalanmäki,61.825849,25.069507,,,
C09519,vt18_Multia_Väätäiskylä,62.588647,24.593683,,,
C09520,vt4_Jyväskylä_Palokka,62.290266,25.720407,,,
C09521,kt69_Konnevesi_Istunmäki,62.703384,26.463524,,,
C09522,kt58_Mänttä,62.023891,24.693755,,,
C09523,vt23_Keuruu_Haapamäki,62.253438,24.454672,,,
C09524,kt58_Kivijärvi_Hannonsalmi,63.134472,25.022315,,,
C09525,vt13_Saarijärvi,62.696176,25.293836,,,
C09526,vt4_Viitasaari_Löytänä,63.224397,25.663308,,,
C09527,vt4_Äänekoski_Kalaniemi,62.877732,25.810019,,,
C09528,vt4_Laukaa_Vehniä,62.44032,25.684373,,,
C09529,vt4_Pihtipudas_Rönnynkylä,63.422953,25.641305,,,
C09530,vt4_Äänekoski_Lintulahti,62.807001,25.807422,,,
C09531,vt9_Jyväskylä_Korpilahti,61.999357,25.50045,,,
C09532,st624_Jyväskylä_Tikka-Mannila,62.371292,25.705434,,,
C09533,vt4_Viitasaari_Hännilänsalmi,63.041096,25.814434,,,
C09534,kt58_Kinnula,63.370901,24.974246,,,
C09535,vt4_Joutsa_Leivonmäki,61.900881,26.112286,,,
C09536,vt23_Keuruu,62.261425,24.68245,,,
C10501,kt67_Seinäjoki_Nurmo,62.81386,22.896222,,,
C10502,vt8_Kruunupyy,63.731638,23.013188,,,
C10503,vt8_Kristiinankaupunki_Lapväärtti,62.266479,21.479586,,,
C10504,vt3_Kurikka_Jalasjärvi,62.460125,22.77157,,,
C10505,vt8_Mustasaari_Koivulahti,63.161924,21.866609,,,
C10506,st724_Raippaluodonsilta,63.206704,21.473422,,,
C10507,vt19_Kauhava,63.105988,22.960242,,,
C10508,vt3_Vaasa_Vanhasatama,63.07097,21.69657,,,
C10510,st724_Raippaluodonsilta_itä,63.206562,21.484814,,,
C10511,st724_Raippaluodonsilta_länsi,63.206678,21.46906,,,
C10512,vt8_Kokkola_Lohtaja,64.006316,23.536675,,,
C10513,vt8_Vöyri_Oravainen,63.292907,22.370695,,,
C10514,vt3_Kurikka_Tuiskula,62.655114,22.435476,,,
C10515,vt18_Inha,62.543275,24.188433,,,
C10516,vt18_Tervajoki,63.005095,22.145379,,,
C10517,vt13_Oksakoski,63.258158,24.293063,,,
C10518,kt68_Evijärvi,63.360559,23.463313,,,
C10519,vt28_Eskola,63.909293,24.12567,,,
C10520,kt66_Kuortane,62.819864,23.507657,,,
C10521,kt67_Teuva,62.476186,21.709193,,,
C10522,vt16_Alajärvi,63.032243,23.869273,,,
C10523,vt8_Vaasa_Kotiranta,63.102269,21.641771,,,
C10524,vt13_Alaveteli,63.708747,23.321539,,,
C10525,vt19_Jepua,63.398453,22.629247,,,
C10526,vt8_Maalahti_Pirttikylä,62.747431,21.641029,,,
C10527,vt3_Laihia,62.971454,22.027101,,,
C10528,vt18_Alavus,62.593043,23.6127,,,
C10529,vt18_Seinäjoki_Munakka,62.851326,22.782237,,,
C10530,vt8_Närpiö,62.472254,21.436208,,,
C10531,vt16_Möksy,63.037285,24.247812,,,
C10532,vt18_Myllymäki,62.568943,24.47842,,,
C10533,vt8_Kokkola_Haavistonkangas,63.866044,23.342245,,,
C10534,vt19_Ilmajoki_Rengonkylä,62.70947,22.837348,,,
C10535,kt44_Juonikylä,62.284416,22.249989,,,
C10536,vt3_Laihia_Ruto,63.001359,21.89874,,,
C10537,kt67_Ilmajoki,62.743524,22.626758,,,
C10538,kt66_Lapua,62.969252,23.049938,,,
C10539,kt63_Toholampi,63.767396,24.245085,,,
C10540,kt58_Lestijärvi,63.520877,24.669245,,,
C10541,vt8_Kristiinankaupunki_Metsälä_K,62.067804,21.530822,,,
C10542,vt8_Uusikaarlepyy_Ytterjeppo,63.44277,22.564302,,,
C10543,kt68_Pietarsaari,63.674763,22.746042,,,
C10544,st673_Maalahti_Petolahti,62.86962,21.394566,,,
C10545,vt8_Mustasaari_Vassor,63.159152,22.008784,,,
C10546,st749_Luoto_Eugmo,63.805549,22.782701,,,
C10547,vt13_Veteli_Sikaharju,63.425185,23.924273,,,
C10548,vt3_Vaasa_puomi,63.084008,21.627949,,,
C10549,vt8_Mustasaari_Riimala,62.951401,21.762351,,,
C10550,vt19_Alahärmä_Voltti,63.28904,22.799024,,,
C10551,vt8_Pedersöre_Lepplax,63.670921,22.914409,,,
C10552,yt7263_Vöyri_Österö,63.377055,22.025032,,,
C10553,vt13_Kaustinen_Viiperi,63.596931,23.473325,,,
C10554,kt68_Vimpeli_Hietoja,63.183048,23.785161,,,
C10555,st673_Närpiö_Rangsby,62.610743,21.22345,,,
C10557,st664_Isojoki_Pettukylä,62.131937,21.940518,,,
C10558,vt8_Vaasa_Mustasaari,63.130098,21.719712,,,
C10559,kt63_kauhava_kortesjärvi,63.295091,23.200638,,,
C12501,vt20_Oulu_Arkala,65.189479,26.1921,,,
C12502,vt8_Kalajoki_Rahja,64.20882,23.769043,,,
C12503,vt4_Oulu,65.004402,25.507365,,,
C12504,vt4_Oulu_Laanila,65.026835,25.507024,,,
C12505,vt4_Pyhäjärvi_Elämäjärvi,63.516296,25.73233,,,
C12506,kt89_Kuhmo_Raiskio,64.461969,28.899538,,,
C12507,vt4_Siikalatva_Pulkkila,64.236694,25.844501,,,
C12508,vt28_Pyhäntä,64.097164,26.338286,,,
C12509,vt5_Kuusamo_Ruka,66.165673,29.11913,,,
C12510,kt76_Kuhmo_Tervasalmi,64.085213,29.098924,,,
C12511,vt22_Paltamo_Kivesvaara,64.454733,27.498365,,,
C12513,vt4_Oulu_Kontinkangas,65.012021,25.506451,,,
C12514,vt4_Ii_Kuivaniemi,65.607925,25.179684,,,
C12515,vt4_Liminka_Alatemmes,64.737894,25.568521,,,
C12516,vt6_Sotkamo_Korholanmäki,64.142281,27.997025,,,
C12517,vt5_Suomussalmi_Palovaara,65.146769,28.939671,,,
C12519,vt20_Taivalkoski_Jurmu,65.497301,27.930768,,,
C12520,vt5_Paltamo_Kontiomäki,64.339222,28.089979,,,
C12521,vt8_Siikajoki_Revonlahti,64.718589,24.968049,,,
C12522,vt20_Kuusamo_Kuolio,65.8294,28.82259,,,
C12524,vt8_Pyhäjoki_Viirre,64.447492,24.210749,,,
C12526,vt28_Kajaani_Otanmäki,64.119247,27.238217,,,
C12528,vt22_Muhos_Hyrkäs,64.791373,26.120719,,,
C12529,kt86_Raahe_Vihanti,64.486651,25.009203,,,
C12530,vt28_Haapavesi_Karsikas,63.957552,25.373638,,,
C12531,st816_Oulunsalo_lautta,65.006084,25.20358,,,
C12532,vt4_Ii_Virkkula,65.338648,25.367599,,,
C12533,vt20_Pudasjärvi_Pintamo,65.429616,27.539641,,,
C12534,kt78_Puolanka_Leipivaara,64.84645,27.780306,,,
C12535,vt6_Sotkamo_Maanselkä,63.876463,28.447782,,,
C12536,kt78_Pudasjärvi_Kokkokylä,65.690453,26.676484,,,
C12537,vt4_Liminka_Haaransilta,64.816183,25.487118,,,
C12538,vt5_Taivalkoski_Tyrävaara,65.499157,28.930552,,,
C12539,vt5_Hyrynsalmi_Istonpitkä,64.672471,28.506942,,,
C12540,kt75_Kuhmo_Lauvuskylä,63.908741,29.53574,,,
C12541,kt78_Puolanka_Törmänmäki,64.573669,27.75239,,,
C12542,st862_Pudasjärvi_Syötekylä,65.647217,27.701992,,,
C12543,vt22_Vaala,64.56721,26.877917,,,
C12544,vt4_Liminka_Tupos,64.864442,25.518404,,,
C12545,st849_Yli-Ii_Tannila,65.48268,25.975475,,,
C12547,vt6_Kajaani,64.219485,27.729053,,,
C12550,kt76_Sotkamo_Vuokatti,64.141389,28.292417,,,
C12551,st800_Vaala_Veneheitto,64.443013,26.525843,,,
C12552,vt4_Oulu_Lintula,64.985992,25.50536,,,
C12553,kt78_Pudasjärvi_Korpijoki,65.247208,27.578897,,,
C12554,vt4_Siikalatva_Rantsila,64.495898,25.673731,,,
C12555,vt4_Kärsämäki,63.983011,25.758079,,,
C12556,vt27_Haapajärvi_Oksava,63.802312,25.257947,,,
C12557,st815_Oulunsalo_Lentokentäntie,64.93884,25.431232,,,
C12558,yt8990_Sotkamo_Pohjavaara,64.224882,28.068431,,,
C12559,vt20_Oulu_Hintta,65.029746,25.527267,,,
C12560,vt20_Oulu_Rusko,65.037447,25.551205,,,
C12561,vt20_Oulu_Korvensuora,65.045678,25.578442,,,
C12562,vt20_Oulu_Hönttämäki,65.052324,25.598936,,,
C12563,vt20_Kiiminki_Välikylä,65.06388,25.635514,,,
C12564,vt6_Sotkamo_Juurikkalahti,64.04824,28.29179,,,
C12565,vt5_Kuusamo_Jokivaara,65.721222,29.151726,,,
C12566,st800_Puolanka_Puokio,64.748022,27.343696,,,
C12567,st849_Kiiminki_Talkkunamaa,65.161521,25.791602,,,
C12568,st837_Utajärvi_Juorkuna,64.954537,26.979889,,,
C12569,vt27_Savari,64.064381,24.552758,,,
C12570,st815_Oulu_Limingantie,64.955832,25.504861,,,
C12571,vt4_Ii_Taipale,65.528236,25.258477,,,
C12572,vt4_Oulu_Honkikangas,65.17447,25.425511,,,
C12573,vt5_Kuusamo_Petäjälampi,66.013444,29.144609,,,
C12574,vt5_Kajaani_Kuluntalahti,64.260648,27.833495,,,
C12575,vt5_Kajaani_Nuottijärvi_K,64.162704,27.524543,,,
C12576,vt8_Raahe_Pattijoki_K,64.68631,24.561583,,,
C12577,vt4_Siikalatva_Hyttikoski,64.421923,25.799529,,,
C12578,vt20_Taivalkoski,65.59233,28.30051,,,
C12579,vt8_Kalajoki_Himanka,64.042047,23.638808,,,
C12581,vt4_Oulu_Isko,65.040836,25.474185,,,
C12583,kt78_Puolanka_Paasikoski,65.03363,27.701664,,,
C12584,vt5_Hyrynsalmi_Seitenjärvi,64.604574,28.465977,,,
C12585,yt9110_Suomussalmi_Seikkala,64.650044,29.195716,,,
C12586,st813_Lumijoki,64.857437,25.149425,,,
C12587,vt4_Oulu_Pateniemi,65.078872,25.441991,,,
C12588,vt8_Pyhäjoki_Hanhikivi,64.515729,24.362597,,,
C12589,vt20_Oulu_Tullinväylä,65.0268,25.493629,,,
C12590,vt20_Kiiminki,65.128079,25.775497,,,
C12591,vt20_Kiiminki_Jääli,65.094391,25.682395,,,
C12592,vt22_Oulu_länsi,65.005286,25.504239,,,
C12593,vt22_Oulu_itä,65.003887,25.510597,,,
C12594,vt22_Oulu_Kaukovainio,64.991107,25.537897,,,
C12595,vt22_Oulu_Maikkula,64.980371,25.561628,,,
C12596,vt22_Oulu_Heikkilänkangas,64.971424,25.611984,,,
C12597,yt18710_Oulu_Kuivasjärvi,65.063158,25.51173,,,
C12598,yt8300_Oulu_Hiukkavaara,65.005824,25.579649,,,
C12599,vt20_Pudasjärvi_Kurenalus,65.365106,26.987401,,,
C12601,vt5_Kuusamo_Kitka,66.305314,28.898913,,,
C12602,kt86_Oulainen_Piipsjärvi,64.309463,24.911744,,,
C12604,yt8690_Kuusamo_Vuotunki,66.121115,29.584713,,,
C12605,vt27_Ylivieska_Alavieska,64.157468,24.30642,,,
C12606,st843_Suomussalmi_Hossa,65.411449,29.560707,,,
C12607,st912_Suomussalmi_Saarivaara,64.673487,29.670402,,,
C12609,vt4_Ii_Olhava,65.412578,25.384825,,,
C12611,st816_Hailuoto_K,65.034327,24.776125,,,
C12612,vt4_Oulu_Intiö,65.019907,25.507899,,,
C12613,vt4_Oulu_Ouluntulli,64.940686,25.5387,,,
C12614,vt4_Oulu_Kaakkuri,64.959079,25.517196,,,
C12615,vt4_Oulu_Linnanmaa,65.055091,25.44914,,,
C12617,vt4_Kempele_Zatelliitti,64.920607,25.534802,,,
C12618,st950_Kuusamo_Käylä,66.305897,29.145949,,,
C12619,vt4_Kempele_Zeppelin,64.905778,25.536309,,,
C12620,vt4_Oulu_Kello,65.106688,25.428522,,,
C12621,vt4_Oulu_Asemakylä,65.20042,25.424183,,,
C12622,vt4_Ii_Räinänperä,65.264579,25.363521,,,
C12623,vt4_Oulu_Haukipudas,65.161671,25.427103,,,
C12624,vt5_Suomussalmi_Raiskio_K,64.786713,28.843601,,,
C12625,vt5_Kajaani_Hatulanmäki_K,63.995691,27.405381,,,
C12626,yt9111_Kuhmo_Saunajärvi,63.930677,29.976146,,,
C12627,st833_Oulu_Vesala,65.031926,26.058409,,,
C12628, vt22_Muhos_Kosulankylä,64.884172,25.84053,,,
C12629,TEST_vt20_Oulu_Arkala_B5100i,65.189479,26.192121,,,
C12642,vt4_Oulu_Testi,65.004135,25.507592,,,
C12643,st843_Suomussalmi_Juntusranta,65.218567,29.490855,,,
C12644,st849_Ii_Oijärvi,65.636699,25.97351,,,
C12645,vt20_Pudasjärvi_Taipaleenharju,65.275583,26.847312,,,
C12646,vt8 Liminka Lapinkangas,64.783085,25.350042,,,
C12647,mt800_Siikalatva_Kestilä,64.353206,26.290622,,,
C12648,st847_Oulu_Äimärautio,64.984486,25.47795,,,
C12650,vt22_Utajärvi_Ylisuvanto,64.617292,26.60667,,,
C12651,Mt912_Kuhmo_Kattilakoski,64.226248,29.811118,,,
C12652,vt4_Pyhäjärvi,63.714348,25.917325,,,
C14071,st930_Ylitornio_Mellakoski,66.399515,24.435414,,,
C14501,st940_Kolari_Äkäslompolo,67.612095,24.138744,,,
C14502,vt4_Rovaniemi_Petäjäskoski,66.285017,25.340398,,,
C14503,kt82_Joutsijärvi_Kemijärvi,66.687524,27.988906,,,
C14504,vt4_Inari_Saariselkä,68.450884,27.423716,,,
C14505,kt80_Kittilä_Tepsa,67.560977,25.676753,,,
C14507,vt4_Sodankylä_Postojoki,67.734904,26.757701,,,
C14508,st955_Inari_Hirvaspää,68.569653,26.203267,,,
C14509,vt4_Rovaniemi_Tiainen,66.9044,26.2032,,,
C14510,vt4_Tervola_Loue,66.145376,24.962841,,,
C14511,kt81_Posio_Pernu,66.189586,27.565164,,,
C14512,vt21_Enontekiö_Ropinsalmi,68.675367,21.592843,,,
C14513,vt21_Kolari_Pohjasenvaara,67.226253,23.896583,,,
C14514,vt21_Ylitornio,66.165556,23.913291,,,
C14515,kt79_Muonio_Äkäsjärvi,67.860929,24.124512,,,
C14516,kt92_Inari_Näätämö,69.66367,29.100175,,,
C14517,vt29_Tornio,65.840648,24.204054,,,
C14519,vt29_Luukkaankangas,65.824806,24.408999,,,
C14520,vt4_Keminmaa,65.789405,24.532171,,,
C14522,kt92_Utsjoki_Kaamasmukka,69.355451,26.466061,,,
C14523,vt4_Inari_Petsikko,69.447573,27.238261,,,
C14524,st956_Enontekiö_Peltovuoma,68.385589,24.208387,,,
C14525,st863_Livojärvi,65.99469,28.179917,,,
C14526,vt4_Rovaniemi_Napapiiri,66.545343,25.853586,,,
C14527,vt5_Pelkosenniemi_Kairala,67.193957,27.441549,,,
C14528,kt79_Lohiniva,67.200394,24.933029,,,
C14530,st924_Simo_Alaniemi,65.832792,25.321074,,,
C14531,vt21_Enontekiö_Palojoensuu,68.284083,23.080531,,,
C14532,kt93_Enontekiö_Leppäjärvi,68.512638,23.306749,,,
C14533,st970_Utsjoki_Nuorgam,70.088512,27.941064,,,
C14534,kt82_Kemijärvi_Hyypiö,66.720333,26.952293,,,
C14535,vt21_Enontekiö_Kilpisjärvi,69.016677,20.874249,,,
C14536,st962_Sodankylä_Luosto,67.157102,26.917361,,,
C14537,st932_Ylitornio_Meltosjärvi,66.533541,24.634226,,,
C14538,st935_Rattosjärvi,66.84491,24.874414,,,
C14539,vt5_Posio_Maaninkavaara,66.443704,28.493725,,,
C14540,vt4_Sodankylä_Porttipahta,67.989959,26.888339,,,
C14541,vt4_Inari_Uruvaara,68.900245,27.077311,,,
C14542,vt21_Pello_Havelanpää,66.824635,24.003267,,,
C14543,st950_Salla_Sallatunturi,66.758162,28.764986,,,
C14544,yt9401_Ylläs_maisematie,67.563188,24.179462,,,
C14545,kt81_Rovaniemi_Juotasniemi,66.323516,26.94151,,,
C14546,st962_Pyhätunturi,67.042101,27.21798,,,
C14547,vt4_Rovaniemi_Revontuli_1,66.500292,25.719219,,,
C14551,vt4_Rovaniemi_Revontuli_5,66.503858,25.725196,,,
C14554,kt78_Rovaniemi_Pöykkölä,66.473259,25.745889,,,
C14555,kt79_Rovaniemi_Patokoski,66.868126,25.451413,,,
C14556,vt4_Kemi_Hepola,65.696098,24.674621,,,
C14557,vt4_Kemi_Ajos,65.715579,24.613697,,,
C14558,vt4_Kemi_Etelänväylä,65.733217,24.589574,,,
C14559,vt4_Kemi_Sauvonväylä,65.744095,24.5826,,,
C14560,vt4_Kemi_Ristikangas,65.75789,24.571634,,,
C14561,vt4_Kemi_Paattio,65.774163,24.562453,,,
C14562,vt4_Tervola_Paakkola_K,65.997655,24.69451,,,
C14563,vt21_Muonio_Tapojarvi,67.530752,23.625159,,,
C14564,vt4_Sodankylä_Torvinen,67.198248,26.638471,,,
C14565,st955_Kittilä_Pokka,68.161547,25.769165,,,
C14566,st945_Kemijärvi_Lehtola,66.557828,27.70893,,,
C14567,vt29_Tornio_Kyläjoki,65.835643,24.262482,,,
C14568,vt4_Rovaniemi_Santa_Claus,66.538124,25.785034,,,
C14569,vt5_Kemijärvi_Suomu_K,66.550917,28.113765,,,
C14570,vt4_Simo_Simoniemi,65.669132,24.930525,,,
C14571,kt78_Ranua_Portimo,66.108385,26.321557,,,
C14572,yt9671_Savukoski_Martti,67.473663,28.363446,,,
C14573,kt92_Inari_Nitsijärvi,69.284252,28.037576,,,
C14574,vt21_Muonio_Pahtonen,67.911098,23.632721,,,
C14575,vt21_Muonio,67.955802,23.68432,,,
C14576,kt78_Ranua_Portimo_Kevyt,66.107379,26.323376,,,
C14577,vt21_Kilpisjärvi_TIO,69.012094,20.888846,,,
C14578,yt9553_Inari_Angeli,68.904036,25.733957,,,
C14579,kt81_Posio_Mourusalmi,66.092967,28.4162,,,
C14580,st965_Salla_Kotala,67.016332,29.012075,,,
C14581,vt21_Enontekiö_Saarikoski,68.806548,21.252106,,,
C14582,st944_Kemijärvi_Lautasalmi,66.516005,27.246314,,,
C14583,kt79_Kittilä_Lentoasema,67.697162,24.862746,,,
C14585,vt21_Enontekiö_Kelottijärvi,68.51985,22.023236,,,
C14586,vt21_Enontekiö_Hietajoki,68.471865,22.411906,,,
C14589,st863_Posio_Sirniö_K,65.834521,28.087992,,,
C14590,vt21_Tornio_Kukkola_K,65.95972,24.055239,,,
C14593,yt9671_Savukoski_Tulppio,67.769077,29.209619,,,
C14594,st970_Utsjoki_Nuvvus,69.785258,26.230451,,,
C14595,st83_Ylitornio_Raanujärvi_K,66.639585,24.848391,,,
C14596,vt21_Ylitornio_Kattilakoski,66.515899,23.796953,,,
C14597,vt_21_Ylitornio_Aavasaksa,66.365118,23.695745,,,
C14598,st952_Sodankylä_Unari,67.145744,25.717129,,,
C14599,St957_Kittilä_Raattama,68.138166,24.219813,,,
C14600,vt21_Pello_Juoksenki,66.554249,23.864565,,,
C14601,Vt4_Sodankylä_Vuotso,68.104056,27.125237,,,
C14602,st941_Ranua_Saariharju,65.919202,27.137777,,,
C16501,vt1_Salo_Muurla,60.379294,23.320352,,,
C16503,vt1_Salo_Kruusila,60.381987,23.451154,,,
C16504,vt1_Salo_Suomusjärvi,60.389462,23.584918,,,
C16505,vt1_Salo_Lahnajärvi,60.371091,23.70776,,,
C16506,vt1_Lohja_Sammatti,60.378821,23.805103,,,
C16507,vt1_Lohja_Nummi,60.342654,23.911585,,,
C16508,vt1_Lohja_Tervakorpi_puomi_länsi,60.341099,23.91853,,,
C16509,vt1_Lohja_Orosmäki_länsi,60.315051,23.975255,,,
C16510,vt1_Lohja_Karnainen,60.293547,24.066031,,,
C16511,vt1_Lohja_Lempola,60.28256,24.116541,,,
C16512,vt1_Lohja_Lehmihaka_itä,60.299235,24.056758,,,
C16518,vt1_Lohja_Lehmihaka_länsi,60.303848,24.046764,,,
C16543,vt1_Lohja_Karnainen_länsi,60.312821,24.000167,,,
C16544,vt1_Lohja_Orosmäki_itä,60.312937,23.997313,,,
C16554,vt1_Lohja_Pitkämäki_itä,60.323017,23.958556,,,
C16564,vt1_Lohja_Pitkämäki_länsi,60.327168,23.939397,,,
C16566,vt1_Lohja_Tervakorpi_itä_avo,60.331391,23.931951,,,
C16567,vt1_Lohja_Tervakorpi_itä,60.333144,23.930047,,,
C16576,vt1_Lohja_Tervakorpi_länsi,60.339863,23.920641,,,
C16577,vt1_Salo_Lakiamäki_itä,60.372284,23.380298,,,
C16585,vt1_Salo_Lakiamäki_länsi2,60.373111,23.360548,,,
C16586,vt1_Salo_Lakiamäki_länsi1,60.373325,23.356876,,,
C16588,vt1_Salo_Hepomäki_itä,60.37482,23.343566,,,
C16594,vt1_Salo_Hepomäki_länsi,60.376784,23.329676,,,
C18534,vt4_Sodankylä_Petäjämaa_K,67.36213,26.617184,,,
